{
  "type": "FeatureCollection",
  "features": [
    {
      "type": "Feature",
      "properties": {
        "norad_id": 61182,
        "name": "GSAT0232 (GALILEO 32)",
        "group": "gnss",
        "lat": 1.837414440293698,
        "lon": -132.09396403053776,
        "alt_km": 23227.872933426614,
        "timestamp": "2025-12-05T16:54:14.895805+00:00",
        "meta_object_name": "GSAT0232 (GALILEO 32)",
        "meta_object_id": "2024-167A",
        "meta_epoch": "2025-12-04T05:35:38.594112",
        "meta_mean_motion": 1.70473104,
        "meta_eccentricity": 0.0002198,
        "meta_inclination": 55.2442,
        "meta_ra_of_asc_node": 226.6646,
        "meta_arg_of_pericenter": 213.7296,
        "meta_mean_anomaly": 325.6534,
        "meta_ephemeris_type": 0,
        "meta_classification_type": "U",
        "meta_norad_cat_id": 61182,
        "meta_element_set_no": 999,
        "meta_rev_at_epoch": 755,
        "meta_bstar": 0,
        "meta_mean_motion_dot": 4.1e-07,
        "meta_mean_motion_ddot": 0,
        "tle_line1": "1 61182U 24167A   25338.23308558  .00000041  00000+0  00000+0 0  9996",
        "tle_line2": "2 61182  55.2442 226.6646 0002198 213.7296 325.6534  1.70473104  7556"
      },
      "geometry": {
        "type": "Point",
        "coordinates": [
          -132.09396403053776,
          1.837414440293698
        ]
      }
    },
    {
      "type": "Feature",
      "properties": {
        "norad_id": 61183,
        "name": "GSAT0226 (GALILEO 31)",
        "group": "gnss",
        "lat": 48.18141033474456,
        "lon": -4.181602357773891,
        "alt_km": 23215.14425121637,
        "timestamp": "2025-12-05T16:54:14.895816+00:00",
        "meta_object_name": "GSAT0226 (GALILEO 31)",
        "meta_object_id": "2024-167B",
        "meta_epoch": "2025-11-26T08:32:06.516672",
        "meta_mean_motion": 1.70473481,
        "meta_eccentricity": 6.079e-05,
        "meta_inclination": 55.246,
        "meta_ra_of_asc_node": 226.8867,
        "meta_arg_of_pericenter": 154.246,
        "meta_mean_anomaly": 343.2327,
        "meta_ephemeris_type": 0,
        "meta_classification_type": "U",
        "meta_norad_cat_id": 61183,
        "meta_element_set_no": 999,
        "meta_rev_at_epoch": 739,
        "meta_bstar": 0,
        "meta_mean_motion_dot": 3e-07,
        "meta_mean_motion_ddot": 0,
        "tle_line1": "1 61183U 24167B   25330.35563098  .00000030  00000+0  00000+0 0  9992",
        "tle_line2": "2 61183  55.2460 226.8867 0000607 154.2460 343.2327  1.70473481  7395"
      },
      "geometry": {
        "type": "Point",
        "coordinates": [
          -4.181602357773891,
          48.18141033474456
        ]
      }
    },
    {
      "type": "Feature",
      "properties": {
        "norad_id": 61186,
        "name": "BEIDOU-3 M25 (C47)",
        "group": "gnss",
        "lat": 43.78838057175046,
        "lon": -8.208393357624292,
        "alt_km": 21531.361489935924,
        "timestamp": "2025-12-05T16:54:14.895826+00:00",
        "meta_object_name": "BEIDOU-3 M25 (C47)",
        "meta_object_id": "2024-168B",
        "meta_epoch": "2025-12-05T05:13:31.135872",
        "meta_mean_motion": 1.86229714,
        "meta_eccentricity": 0.00054853,
        "meta_inclination": 54.6489,
        "meta_ra_of_asc_node": 308.9806,
        "meta_arg_of_pericenter": 294.5401,
        "meta_mean_anomaly": 157.173,
        "meta_ephemeris_type": 0,
        "meta_classification_type": "U",
        "meta_norad_cat_id": 61186,
        "meta_element_set_no": 999,
        "meta_rev_at_epoch": 817,
        "meta_bstar": 0,
        "meta_mean_motion_dot": -7e-07,
        "meta_mean_motion_ddot": 0,
        "tle_line1": "1 61186U 24168B   25339.21772148 -.00000070  00000+0  00000+0 0  9993",
        "tle_line2": "2 61186  54.6489 308.9806 0005485 294.5401 157.1730  1.86229714  8171"
      },
      "geometry": {
        "type": "Point",
        "coordinates": [
          -8.208393357624292,
          43.78838057175046
        ]
      }
    },
    {
      "type": "Feature",
      "properties": {
        "norad_id": 61187,
        "name": "BEIDOU-3 M27 (C49)",
        "group": "gnss",
        "lat": -10.531644121451986,
        "lon": 136.5053788071607,
        "alt_km": 21534.43713647089,
        "timestamp": "2025-12-05T16:54:14.895837+00:00",
        "meta_object_name": "BEIDOU-3 M27 (C49)",
        "meta_object_id": "2024-168C",
        "meta_epoch": "2025-12-05T03:27:10.204704",
        "meta_mean_motion": 1.86229855,
        "meta_eccentricity": 0.00022725,
        "meta_inclination": 54.6444,
        "meta_ra_of_asc_node": 308.9668,
        "meta_arg_of_pericenter": 330.3583,
        "meta_mean_anomaly": 206.7783,
        "meta_ephemeris_type": 0,
        "meta_classification_type": "U",
        "meta_norad_cat_id": 61187,
        "meta_element_set_no": 999,
        "meta_rev_at_epoch": 564,
        "meta_bstar": 0,
        "meta_mean_motion_dot": -7e-07,
        "meta_mean_motion_ddot": 0,
        "tle_line1": "1 61187U 24168C   25339.14386811 -.00000070  00000+0  00000+0 0  9994",
        "tle_line2": "2 61187  54.6444 308.9668 0002272 330.3583 206.7783  1.86229855  5644"
      },
      "geometry": {
        "type": "Point",
        "coordinates": [
          136.5053788071607,
          -10.531644121451986
        ]
      }
    },
    {
      "type": "Feature",
      "properties": {
        "norad_id": 62339,
        "name": "GPS BIII-7  (PRN 01)",
        "group": "gnss",
        "lat": -32.103864626112674,
        "lon": -171.81945189099596,
        "alt_km": 20202.808887139832,
        "timestamp": "2025-12-05T16:54:14.895855+00:00",
        "meta_object_name": "GPS BIII-7  (PRN 01)",
        "meta_object_id": "2024-242A",
        "meta_epoch": "2025-12-04T03:38:20.685120",
        "meta_mean_motion": 2.00567235,
        "meta_eccentricity": 0.0011725,
        "meta_inclination": 54.9261,
        "meta_ra_of_asc_node": 342.0885,
        "meta_arg_of_pericenter": 343.4986,
        "meta_mean_anomaly": 195.9397,
        "meta_ephemeris_type": 0,
        "meta_classification_type": "U",
        "meta_norad_cat_id": 62339,
        "meta_element_set_no": 999,
        "meta_rev_at_epoch": 734,
        "meta_bstar": 0,
        "meta_mean_motion_dot": -7.2e-07,
        "meta_mean_motion_ddot": 0,
        "tle_line1": "1 62339U 24242A   25338.15162830 -.00000072  00000+0  00000+0 0  9992",
        "tle_line2": "2 62339  54.9261 342.0885 0011725 343.4986 195.9397  2.00567235  7342"
      },
      "geometry": {
        "type": "Point",
        "coordinates": [
          -171.81945189099596,
          -32.103864626112674
        ]
      }
    },
    {
      "type": "Feature",
      "properties": {
        "norad_id": 62850,
        "name": "NVS-02 (IRNSS-1K)",
        "group": "gnss",
        "lat": 10.483300451149587,
        "lon": 121.37511876992997,
        "alt_km": 14709.101627708522,
        "timestamp": "2025-12-05T16:54:14.895868+00:00",
        "meta_object_name": "NVS-02 (IRNSS-1K)",
        "meta_object_id": "2025-020A",
        "meta_epoch": "2025-12-05T04:41:35.643552",
        "meta_mean_motion": 2.1758661,
        "meta_eccentricity": 0.73477968,
        "meta_inclination": 21.0036,
        "meta_ra_of_asc_node": 330.3881,
        "meta_arg_of_pericenter": 21.3409,
        "meta_mean_anomaly": 357.8218,
        "meta_ephemeris_type": 0,
        "meta_classification_type": "U",
        "meta_norad_cat_id": 62850,
        "meta_element_set_no": 999,
        "meta_rev_at_epoch": 675,
        "meta_bstar": 0.00043450225,
        "meta_mean_motion_dot": 6.73e-06,
        "meta_mean_motion_ddot": 0,
        "tle_line1": "1 62850U 25020A   25339.19555143  .00000673  00000+0  43450-3 0  9999",
        "tle_line2": "2 62850  21.0036 330.3881 7347796  21.3409 357.8218  2.17586610  6751"
      },
      "geometry": {
        "type": "Point",
        "coordinates": [
          121.37511876992997,
          10.483300451149587
        ]
      }
    },
    {
      "type": "Feature",
      "properties": {
        "norad_id": 63130,
        "name": "COSMOS 2584 (704K)",
        "group": "gnss",
        "lat": -62.44148929954882,
        "lon": 16.040793604729103,
        "alt_km": 19129.63748555939,
        "timestamp": "2025-12-05T16:54:14.895878+00:00",
        "meta_object_name": "COSMOS 2584 (704K)",
        "meta_object_id": "2025-042A",
        "meta_epoch": "2025-11-26T10:06:10.904256",
        "meta_mean_motion": 2.13103062,
        "meta_eccentricity": 0.00075218,
        "meta_inclination": 64.9668,
        "meta_ra_of_asc_node": 79.7019,
        "meta_arg_of_pericenter": 212.3772,
        "meta_mean_anomaly": 147.585,
        "meta_ephemeris_type": 0,
        "meta_classification_type": "U",
        "meta_norad_cat_id": 63130,
        "meta_element_set_no": 999,
        "meta_rev_at_epoch": 572,
        "meta_bstar": 0,
        "meta_mean_motion_dot": 1.8e-07,
        "meta_mean_motion_ddot": 0,
        "tle_line1": "1 63130U 25042A   25330.42095954  .00000018  00000+0  00000+0 0  9994",
        "tle_line2": "2 63130  64.9668  79.7019 0007521 212.3772 147.5850  2.13103062  5728"
      },
      "geometry": {
        "type": "Point",
        "coordinates": [
          16.040793604729103,
          -62.44148929954882
        ]
      }
    }
  ]
}